[{"OBJECT_NAME":"SPAWAR-CAL-R","OBJECT_ID":"2018-099U","EPOCH":"2026-03-08T15:37:40.202400","MEAN_MOTION":15.05212097,"ECCENTRICITY":0.00197014,"INCLINATION":97.4524,"RA_OF_ASC_NODE":111.5817,"ARG_OF_PERICENTER":348.9052,"MEAN_ANOMALY":11.1737,"EPHEMERIS_TYPE":0,"CLASSIFICATION_TYPE":"U","NORAD_CAT_ID":43776,"ELEMENT_SET_NO":999,"REV_AT_EPOCH":39687,"BSTAR":0.00025335573,"MEAN_MOTION_DOT":3.57e-5,"MEAN_MOTION_DDOT":0},{"OBJECT_NAME":"STARLINK-3741","OBJECT_ID":"2022-052X","EPOCH":"2026-03-09T20:58:20.736768","MEAN_MOTION":15.08835746,"ECCENTRICITY":0.00014314,"INCLINATION":53.2166,"RA_OF_ASC_NODE":268.2842,"ARG_OF_PERICENTER":88.678,"MEAN_ANOMALY":271.4377,"EPHEMERIS_TYPE":0,"CLASSIFICATION_TYPE":"U","NORAD_CAT_ID":52619,"ELEMENT_SET_NO":999,"REV_AT_EPOCH":21101,"BSTAR":-4.335461e-6,"MEAN_MOTION_DOT":-3.57e-6,"MEAN_MOTION_DDOT":0}]
