SPAWAR-CAL-R            
1 43776U 18099U   26067.65115975  .00003570  00000+0  25336-3 0  9990
2 43776  97.4524 111.5817 0019701 348.9052  11.1737 15.05212097396878
STARLINK-3741           
1 52619U 22052X   26068.87385112 -.00000357  00000+0 -43355-5 0  9992
2 52619  53.2166 268.2842 0001431  88.6780 271.4377 15.08835746211019
